OPS 6582 (TRANSIT 5B-5) 
1 00965U 64083D   21270.59681711  .00000058  00000-0  69073-4 0  9993
2 00965  90.0277 194.6825 0038914 278.1788 255.5876 13.56760846809874
OSCAR 7 (AO-7)          
1 07530U 74089B   21270.41663983 -.00000036  00000-0  62038-4 0  9998
2 07530 101.8669 244.8531 0012042 184.8903 328.8410 12.53650463144502
UOSAT 2 (UO-11)         
1 14781U 84021B   21270.52607924  .00000184  00000-0  28564-4 0  9995
2 14781  97.5992 265.3710 0009945 103.5374 256.6949 14.83329622  1066
NOAA 9                  
1 15427U 84123A   21270.36213549  .00000020  00000-0  33092-4 0  9995
2 15427  99.0057 234.1787 0014568 187.8246 335.5127 14.16144725899370
LUSAT (LO-19)           
1 20442U 90005G   21270.36002602  .00000041  00000-0  31502-4 0  9997
2 20442  98.7524 226.8050 0010971 217.6517 142.3900 14.32998436655429
ITAMSAT (IO-26)         
1 22826U 93061D   21270.54163483 -.00000004  00000-0  16381-4 0  9993
2 22826  98.9090 290.5460 0010057  85.6412 274.5918 14.30465648460829
RADIO ROSTO (RS-15)     
1 23439U 94085A   21270.51931944 -.00000037  00000-0  15882-3 0  9993
2 23439  64.8121 210.8825 0164047 317.4590  41.3716 11.27570612101840
JAS-2 (FO-29)           
1 24278U 96046B   21270.56455036 -.00000035  00000-0  24805-5 0  9997
2 24278  98.5564 324.9661 0349353 245.0088 111.4392 13.53106043240055
NOAA 15                 
1 25338U 98030A   21270.52461428  .00000038  00000-0  34377-4 0  9994
2 25338  98.6757 298.1036 0010054 349.8728  10.2248 14.26059898215798
TECHSAT 1B (GO-32)      
1 25397U 98043D   21270.59089216  .00000004  00000-0  21416-4 0  9994
2 25397  98.7791 215.8993 0002045 119.8962 240.2420 14.23716292206024
ISS (ZARYA)             
1 25544U 98067A   21270.51868807 -.00008266  00000-0 -14271-3 0  9997
2 25544  51.6449 196.7554 0003978  30.7230 136.0606 15.48857870304451
ORSTED                  
1 25635U 99008B   21270.55189336  .00000127  00000-0  38166-4 0  9997
2 25635  96.4778 191.5095 0137101 300.5487  58.2240 14.48321106192490
PHASE 3D (AO-40)        
1 26609U 00072B   21270.02839282 -.00000146  00000-0  00000-0 0  9990
2 26609   9.0234 310.1916 7957336 294.2702   5.3961  1.25587321 95844
PCSAT (NO-44)           
1 26931U 01043C   21270.59629444 -.00000009  00000-0  28308-4 0  9999
2 26931  67.0536  16.8248 0005469 269.6764  90.3710 14.30633733 43801
SAUDISAT 1C (SO-50)     
1 27607U 02058C   21270.62512751  .00000085  00000-0  32675-4 0  9998
2 27607  64.5570  25.8974 0053357 350.9768   9.0369 14.75792763  9587
CUTE-1 (CO-55)          
1 27844U 03031E   21270.47976769  .00000070  00000-0  51248-4 0  9990
2 27844  98.6822 277.1504 0010582 138.5727 221.6255 14.22334821946526
CUBESAT XI-IV (CO-57)   
1 27848U 03031J   21270.43302287  .00000064  00000-0  48712-4 0  9993
2 27848  98.6876 277.6622 0010251 151.3296 208.8447 14.21908737946300
MOZHAYETS 4 (RS-22)     
1 27939U 03042A   21270.48740914  .00000232  00000-0  50230-4 0  9999
2 27939  98.1563  46.9541 0012015 322.7964  37.2406 14.67026243962481
INMARSAT 4-F1           
1 28628U 05009A   21270.50983205 -.00000260  00000-0  00000-0 0  9993
2 28628   3.4297  32.1405 0003033 163.9648 137.4707  1.00271820 60381
NOAA 18                 
1 28654U 05018A   21270.58195974  .00000070  00000-0  62270-4 0  9997
2 28654  98.9844 335.8067 0014024 358.2287   1.8833 14.12641274842950
CUBESAT XI-V            
1 28895U 05043F   21270.60852730  .00000271  00000-0  60768-4 0  9998
2 28895  98.0730  41.6966 0015540 246.7546 113.2021 14.63964505848959
METOP-A                 
1 29499U 06044A   21270.62196872  .00000007  00000-0  22196-4 0  9991
2 29499  98.4633 305.7678 0001197  66.6618  91.6417 14.21511243775253
CARTOSAT-2 (IRS-P7)     
1 29710U 07001B   21270.49163595  .00004380  00000-0  13393-3 0  9998
2 29710  97.8704 357.5983 0167044 253.4351 104.8480 15.21876818796162
FALCONSAT-3             
1 30776U 07006E   21270.12397397  .00008421  00000-0  19389-3 0  9997
2 30776  35.4330 166.3040 0000882 149.6734 210.4045 15.41906672808806
CAPE-1                  
1 31130U 07012P   21269.78062462  .00000416  00000-0  97878-4 0  9997
2 31130  98.2385 207.7081 0096599  30.9391 329.7450 14.56733829766707
CARTOSAT-2A             
1 32783U 08021A   21270.45236449  .00000005  00000-0  78017-5 0  9996
2 32783  97.9954 327.9126 0011096 298.1329  61.8767 14.78622823724156
CUTE-1.7+APD II (CO-65) 
1 32785U 08021C   21270.49338038  .00000568  00000-0  66232-4 0  9998
2 32785  97.6225 245.4361 0013765  31.1268 329.0762 14.88811349727356
COMPASS-1               
1 32787U 08021E   21269.98333339  .00001687  00000-0  16198-3 0  9999
2 32787  97.5380 256.8071 0011095 315.5999  44.4331 14.94297521728692
AAUSAT-II               
1 32788U 08021F   21270.44632917  .00001695  00000-0  15683-3 0  9994
2 32788  97.5124 260.8729 0010088 290.6211  69.3928 14.95777207729105
DELFI-C3 (DO-64)        
1 32789U 08021G   21270.51919063  .00002901  00000-0  18474-3 0  9995
2 32789  97.3692 301.9431 0012624 145.2329 214.9728 15.09455038732228
SEEDS II (CO-66)        
1 32791U 08021J   21270.40535647  .00000922  00000-0  97272-4 0  9993
2 32791  97.5814 251.1579 0013003 354.1325   5.9740 14.91537368727972
YUBILEINY (RS-30)       
1 32953U 08025A   21270.52190881  .00000021  00000-0  80971-4 0  9995
2 32953  82.5084 347.4574 0020699 114.0991 246.2256 12.43104715605664
FENGYUN 3A              
1 32958U 08026A   21270.32973480  .00000025  00000-0  31898-4 0  9991
2 32958  98.4626 239.2972 0009847  67.0358 293.1856 14.18669004690913
PRISM (HITOMI)          
1 33493U 09002B   21270.14225504  .00001980  00000-0  17342-3 0  9996
2 33493  98.2012 237.6560 0013692 316.9525  43.0623 14.97893394689544
STARS (KUKAI)           
1 33498U 09002G   21270.46078784  .00000467  00000-0  69888-4 0  9994
2 33498  98.1975 152.6387 0011526  24.6109 335.5650 14.79425246682543
KKS-1 (KISEKI)          
1 33499U 09002H   21270.58742179  .00000176  00000-0  33596-4 0  9998
2 33499  98.2522 142.7508 0010393  76.6390 283.5977 14.75702467681472
NOAA 19                 
1 33591U 09005A   21270.55496593  .00000041  00000-0  47336-4 0  9995
2 33591  99.1793 293.7692 0013573 202.4737 157.5841 14.12497151651337
SWISSCUBE               
1 35932U 09051B   21270.50458471  .00000190  00000-0  53660-4 0  9997
2 35932  98.5955 113.7061 0008347 128.7459 231.4485 14.56582769637817
BEESAT-1                
1 35933U 09051C   21270.53509873  .00000156  00000-0  46031-4 0  9990
2 35933  98.5910 115.5159 0006366 138.3370 221.8312 14.56634607637894
ITUPSAT1                
1 35935U 09051E   21270.53144214  .00000130  00000-0  40858-4 0  9999
2 35935  98.6012 115.6293 0008635 142.3030 217.8773 14.55763020637627
XIWANG-1 (HOPE-1)       
1 36122U 09072B   21270.37466038 -.00000033  00000-0  24328-4 0  9991
2 36122 100.1446 246.8637 0006932 223.8281 136.2283 13.16362647566195
CARTOSAT-2B             
1 36795U 10035A   21270.42321521  .00000134  00000-0  25424-4 0  9990
2 36795  97.9905 328.1387 0014307  19.8192 340.3583 14.78636560605191
TISAT 1                 
1 36799U 10035E   21270.26923302  .00000813  00000-0  86574-4 0  9998
2 36799  98.2034 105.2106 0010893 236.9743 123.0429 14.91868964608519
FENGYUN 3B              
1 37214U 10059A   21270.42392187  .00000013  00000-0  30050-4 0  9996
2 37214  99.0859 266.5116 0017637  28.1916 332.0209 14.15999542563762
JUGNU                   
1 37839U 11058B   21270.51497259  .00000349  00000-0  44119-4 0  9998
2 37839  19.9622 330.2173 0018970 137.0934 252.7801 14.12726055514910
SRMSAT                  
1 37841U 11058D   21270.56646859  .00000314  00000-0  27234-4 0  9999
2 37841  19.9733  43.8950 0011904 336.1251 105.8477 14.10704891514076
M-CUBED & EXP-1 PRIME   
1 37855U 11061F   21270.40523600  .00003592  00000-0  17645-3 0  9994
2 37855 101.7203 246.7539 0165428 127.2343 234.4094 15.08173307541548
HORYU-2                 
1 38340U 12025D   21270.43699143  .00000401  00000-0  65849-4 0  9990
2 38340  98.2240 339.6561 0011162 356.1569   3.9552 14.76111436493435
METOP-B                 
1 38771U 12049A   21270.60532544  .00000008  00000-0  23429-4 0  9995
2 38771  98.7046 329.3396 0002221  87.9181  73.1867 14.21493958468385
SARAL                   
1 39086U 13009A   21270.53951660 -.00000010  00000-0  12616-4 0  9998
2 39086  98.5478  95.0688 0000897  37.1471 322.9774 14.32061644448856
AAUSAT 3                
1 39087U 13009B   21270.52908665  .00000128  00000-0  58924-4 0  9996
2 39087  98.4168 111.4783 0012301 335.4758  24.5829 14.35973705449845
STRAND-1                
1 39090U 13009E   21270.47365197  .00000067  00000-0  38521-4 0  9994
2 39090  98.4208 110.2372 0008806 342.3163  17.7715 14.35185162449678
BRITE-AUSTRIA           
1 39091U 13009F   21270.52668327  .00000013  00000-0  19526-4 0  9997
2 39091  98.4216 109.4306 0010265 347.9885  12.1054 14.35202326449711
UNIBRITE                
1 39092U 13009G   21270.52476788  .00000022  00000-0  22897-4 0  9991
2 39092  98.4246 109.1485 0009066 343.6573  16.4319 14.35073070449672
SOMP                    
1 39134U 13015E   21270.23427706  .00005207  00000-0  22694-3 0  9993
2 39134  64.8637 201.3425 0018835 316.1103  43.8529 15.23157130466716
BEESAT-3                
1 39135U 13015F   21270.32090322  .00004258  00000-0  20639-3 0  9996
2 39135  64.8672 231.9562 0016396 332.2473  27.7777 15.19816223466082
BEESAT-2                
1 39136U 13015G   21270.29709723  .00003680  00000-0  18304-3 0  9999
2 39136  64.8747 238.8569 0018067 240.3136 119.6193 15.19140144465906
NEE-01 PEGASO           
1 39151U 13018B   21270.55550212  .00000322  00000-0  49036-4 0  9992
2 39151  97.9834  12.4419 0017567  31.6341 328.5922 14.80413211454779
CUBEBUG-1 (CAPITAN BETO)
1 39153U 13018D   21270.53263295  .00000402  00000-0  58696-4 0  9995
2 39153  98.0000  15.9622 0017334  26.9888 333.2222 14.81004648454831
